start=new Date('2021-10-24T00:00:00.000Z').valueOf();
sats=[{"SITE":"AFETR","ARG_OF_PERICENTER":"101.8969","OBJECT_NAME":"STARLINK-1342","APOAPSIS":"548.143","FILE":"3181152","ELEMENT_SET_NO":"999","TIME_SYSTEM":"UTC","MEAN_MOTION":"15.06391376","MEAN_MOTION_DDOT":"0.0000000000000","DECAY_DATE":null,"OBJECT_ID":"2020-025AD","NORAD_CAT_ID":"45558","MEAN_ANOMALY":"258.2167","COUNTRY_CODE":"US","BSTAR":"0.00000374790000","REF_FRAME":"TEME","GP_ID":"188022831","EPHEMERIS_TYPE":"0","CENTER_NAME":"EARTH","INCLINATION":"53.0553","CLASSIFICATION_TYPE":"U","PERIOD":"95.593","TLE_LINE1":"1 45558U 20025AD  21296.78576541 -.00000226  00000-0  37479-5 0  9995","ECCENTRICITY":"0.00013040","RCS_SIZE":"LARGE","SEMIMAJOR_AXIS":"6925.375","RA_OF_ASC_NODE":"59.8947","MEAN_ELEMENT_THEORY":"SGP4","PERIAPSIS":"546.337","LAUNCH_DATE":"2020-04-22","REV_AT_EPOCH":"8452","EPOCH":"2021-10-23T18:51:30.131424","TLE_LINE2":"2 45558  53.0553  59.8947 0001304 101.8969 258.2167 15.06391376 84525","MEAN_MOTION_DOT":"-0.00000226","OBJECT_TYPE":"PAYLOAD"},{"TLE_LINE1":"1 45559U 20025AE  21296.75628240  .00001139  00000-0  95348-4 0  9998","SEMIMAJOR_AXIS":"6925.372","RCS_SIZE":"LARGE","ECCENTRICITY":"0.00010220","RA_OF_ASC_NODE":"60.0216","PERIOD":"95.593","EPOCH":"2021-10-23T18:09:02.799360","TLE_LINE2":"2 45559  53.0548  60.0216 0001022 102.2678 257.8425 15.06392398 84529","OBJECT_TYPE":"PAYLOAD","MEAN_MOTION_DOT":"0.00001139","LAUNCH_DATE":"2020-04-22","MEAN_ELEMENT_THEORY":"SGP4","PERIAPSIS":"546.529","REV_AT_EPOCH":"8452","TIME_SYSTEM":"UTC","MEAN_MOTION_DDOT":"0.0000000000000","MEAN_MOTION":"15.06392398","OBJECT_ID":"2020-025AE","DECAY_DATE":null,"ARG_OF_PERICENTER":"102.2678","SITE":"AFETR","APOAPSIS":"547.945","FILE":"3181152","ELEMENT_SET_NO":"999","OBJECT_NAME":"STARLINK-1344","EPHEMERIS_TYPE":"0","CENTER_NAME":"EARTH","CLASSIFICATION_TYPE":"U","INCLINATION":"53.0548","MEAN_ANOMALY":"257.8425","NORAD_CAT_ID":"45559","COUNTRY_CODE":"US","BSTAR":"0.00009534800000","REF_FRAME":"TEME","GP_ID":"188023581"},{"PERIOD":"95.592","TLE_LINE1":"1 45560U 20025AF  21296.74245715  .00001413  00000-0  11374-3 0  9992","ECCENTRICITY":"0.00016520","RCS_SIZE":"LARGE","SEMIMAJOR_AXIS":"6925.359","RA_OF_ASC_NODE":"50.0883","MEAN_ELEMENT_THEORY":"SGP4","PERIAPSIS":"546.080","LAUNCH_DATE":"2020-04-22","REV_AT_EPOCH":"8466","EPOCH":"2021-10-23T17:49:08.297760","TLE_LINE2":"2 45560  53.0559  50.0883 0001652  84.2043 275.9134 15.06396498 84664","MEAN_MOTION_DOT":"0.00001413","OBJECT_TYPE":"PAYLOAD","SITE":"AFETR","ARG_OF_PERICENTER":"84.2043","OBJECT_NAME":"STARLINK-1346","ELEMENT_SET_NO":"999","FILE":"3181152","APOAPSIS":"548.368","TIME_SYSTEM":"UTC","MEAN_MOTION":"15.06396498","MEAN_MOTION_DDOT":"0.0000000000000","DECAY_DATE":null,"OBJECT_ID":"2020-025AF","NORAD_CAT_ID":"45560","MEAN_ANOMALY":"275.9134","COUNTRY_CODE":"US","BSTAR":"0.00011374000000","REF_FRAME":"TEME","GP_ID":"188022329","EPHEMERIS_TYPE":"0","CENTER_NAME":"EARTH","INCLINATION":"53.0559","CLASSIFICATION_TYPE":"U"},{"MEAN_MOTION":"15.07323486","MEAN_MOTION_DDOT":"0.0000000000000","DECAY_DATE":null,"OBJECT_ID":"2020-025AG","TIME_SYSTEM":"UTC","OBJECT_NAME":"STARLINK-1348","FILE":"3181152","APOAPSIS":"544.697","ELEMENT_SET_NO":"999","ARG_OF_PERICENTER":"65.7890","SITE":"AFETR","CENTER_NAME":"EARTH","INCLINATION":"53.0594","CLASSIFICATION_TYPE":"U","EPHEMERIS_TYPE":"0","BSTAR":"0.00026875000000","REF_FRAME":"TEME","GP_ID":"188022579","NORAD_CAT_ID":"45561","MEAN_ANOMALY":"294.3146","COUNTRY_CODE":"US","RA_OF_ASC_NODE":"335.2521","TLE_LINE1":"1 45561U 20025AG  21296.64151181  .00003823  00000-0  26875-3 0  9994","RCS_SIZE":"LARGE","ECCENTRICITY":"0.00004510","SEMIMAJOR_AXIS":"6922.520","PERIOD":"95.534","MEAN_MOTION_DOT":"0.00003823","OBJECT_TYPE":"PAYLOAD","EPOCH":"2021-10-23T15:23:46.620384","TLE_LINE2":"2 45561  53.0594 335.2521 0000451  65.7890 294.3146 15.07323486 85703","PERIAPSIS":"544.072","MEAN_ELEMENT_THEORY":"SGP4","LAUNCH_DATE":"2020-04-22","REV_AT_EPOCH":"8570"},{"EPHEMERIS_TYPE":"0","CENTER_NAME":"EARTH","INCLINATION":"53.0546","CLASSIFICATION_TYPE":"U","MEAN_ANOMALY":"264.2078","NORAD_CAT_ID":"45562","COUNTRY_CODE":"US","BSTAR":"0.00006827900000","GP_ID":"188023331","REF_FRAME":"TEME","TIME_SYSTEM":"UTC","MEAN_MOTION":"15.06393617","MEAN_MOTION_DDOT":"0.0000000000000","DECAY_DATE":null,"OBJECT_ID":"2020-025AH","ARG_OF_PERICENTER":"95.9044","SITE":"AFETR","OBJECT_NAME":"STARLINK-1354","FILE":"3181152","ELEMENT_SET_NO":"999","APOAPSIS":"548.041","EPOCH":"2021-10-23T18:19:39.163872","TLE_LINE2":"2 45562  53.0546  59.9918 0001166  95.9044 264.2078 15.06393617 84522","MEAN_MOTION_DOT":"0.00000736","OBJECT_TYPE":"PAYLOAD","PERIAPSIS":"546.426","MEAN_ELEMENT_THEORY":"SGP4","LAUNCH_DATE":"2020-04-22","REV_AT_EPOCH":"8452","TLE_LINE1":"1 45562U 20025AH  21296.76364773  .00000736  00000-0  68279-4 0  9996","RCS_SIZE":"LARGE","ECCENTRICITY":"0.00011660","SEMIMAJOR_AXIS":"6925.368","RA_OF_ASC_NODE":"59.9918","PERIOD":"95.593"},{"PERIOD":"95.592","TLE_LINE1":"1 45563U 20025AJ  21296.77838845 -.00000262  00000-0  13237-5 0  9994","ECCENTRICITY":"0.00012480","RCS_SIZE":"LARGE","SEMIMAJOR_AXIS":"6925.359","RA_OF_ASC_NODE":"59.9275","PERIAPSIS":"546.359","MEAN_ELEMENT_THEORY":"SGP4","LAUNCH_DATE":"2020-04-22","REV_AT_EPOCH":"8452","EPOCH":"2021-10-23T18:40:52.762080","TLE_LINE2":"2 45563  53.0559  59.9275 0001248  93.9089 266.2042 15.06396702 84522","MEAN_MOTION_DOT":"-0.00000262","OBJECT_TYPE":"PAYLOAD","ARG_OF_PERICENTER":"93.9089","SITE":"AFETR","OBJECT_NAME":"STARLINK-1355","ELEMENT_SET_NO":"999","FILE":"3181152","APOAPSIS":"548.088","TIME_SYSTEM":"UTC","MEAN_MOTION":"15.06396702","MEAN_MOTION_DDOT":"0.0000000000000","DECAY_DATE":null,"OBJECT_ID":"2020-025AJ","MEAN_ANOMALY":"266.2042","NORAD_CAT_ID":"45563","COUNTRY_CODE":"US","BSTAR":"0.00000132370000","REF_FRAME":"TEME","GP_ID":"188023082","EPHEMERIS_TYPE":"0","CENTER_NAME":"EARTH","INCLINATION":"53.0559","CLASSIFICATION_TYPE":"U"},{"RA_OF_ASC_NODE":"59.9383","SEMIMAJOR_AXIS":"6925.341","RCS_SIZE":"LARGE","ECCENTRICITY":"0.00011670","TLE_LINE1":"1 45564U 20025AK  21296.77469799 -.00000160  00000-0  81631-5 0  9993","PERIOD":"95.592","MEAN_MOTION_DOT":"-0.00000160","OBJECT_TYPE":"PAYLOAD","TLE_LINE2":"2 45564  53.0543  59.9383 0001167  89.0740 271.0383 15.06402429 84522","EPOCH":"2021-10-23T18:35:33.906336","REV_AT_EPOCH":"8452","PERIAPSIS":"546.398","MEAN_ELEMENT_THEORY":"SGP4","LAUNCH_DATE":"2020-04-22","DECAY_DATE":null,"OBJECT_ID":"2020-025AK","MEAN_MOTION":"15.06402429","MEAN_MOTION_DDOT":"0.0000000000000","TIME_SYSTEM":"UTC","OBJECT_NAME":"STARLINK-1356","FILE":"3181152","ELEMENT_SET_NO":"999","APOAPSIS":"548.014","ARG_OF_PERICENTER":"89.0740","SITE":"AFETR","INCLINATION":"53.0543","CLASSIFICATION_TYPE":"U","CENTER_NAME":"EARTH","EPHEMERIS_TYPE":"0","GP_ID":"188021830","REF_FRAME":"TEME","BSTAR":"0.00000816310000","COUNTRY_CODE":"US","NORAD_CAT_ID":"45564","MEAN_ANOMALY":"271.0383"},{"NORAD_CAT_ID":"45565","MEAN_ANOMALY":"257.4215","COUNTRY_CODE":"US","BSTAR":"0.00011886000000","REF_FRAME":"TEME","GP_ID":"188022080","EPHEMERIS_TYPE":"0","CENTER_NAME":"EARTH","INCLINATION":"53.0552","CLASSIFICATION_TYPE":"U","ARG_OF_PERICENTER":"102.6925","SITE":"AFETR","OBJECT_NAME":"STARLINK-1357","FILE":"3181152","APOAPSIS":"548.157","ELEMENT_SET_NO":"999","TIME_SYSTEM":"UTC","MEAN_MOTION":"15.06398492","MEAN_MOTION_DDOT":"0.0000000000000","DECAY_DATE":null,"OBJECT_ID":"2020-025AL","MEAN_ELEMENT_THEORY":"SGP4","PERIAPSIS":"546.279","LAUNCH_DATE":"2020-04-22","REV_AT_EPOCH":"8452","EPOCH":"2021-10-23T18:24:57.038112","TLE_LINE2":"2 45565  53.0552  59.9756 0001356 102.6925 257.4215 15.06398492 84520","MEAN_MOTION_DOT":"0.00001489","OBJECT_TYPE":"PAYLOAD","PERIOD":"95.592","TLE_LINE1":"1 45565U 20025AL  21296.76732683  .00001489  00000-0  11886-3 0  9995","ECCENTRICITY":"0.00013560","RCS_SIZE":"LARGE","SEMIMAJOR_AXIS":"6925.353","RA_OF_ASC_NODE":"59.9756"},{"PERIOD":"95.593","RA_OF_ASC_NODE":"59.9147","RCS_SIZE":"LARGE","ECCENTRICITY":"0.00010620","SEMIMAJOR_AXIS":"6925.383","TLE_LINE1":"1 45566U 20025AM  21296.78208806 -.00000665  00000-0 -25769-4 0  9996","REV_AT_EPOCH":"8452","LAUNCH_DATE":"2020-04-22","PERIAPSIS":"546.513","MEAN_ELEMENT_THEORY":"SGP4","OBJECT_TYPE":"PAYLOAD","MEAN_MOTION_DOT":"-0.00000665","TLE_LINE2":"2 45566  53.0555  59.9147 0001062  82.4118 277.6992 15.06388761 84525","EPOCH":"2021-10-23T18:46:12.408384","FILE":"3181152","APOAPSIS":"547.983","ELEMENT_SET_NO":"999","OBJECT_NAME":"STARLINK-1358","ARG_OF_PERICENTER":"82.4118","SITE":"AFETR","OBJECT_ID":"2020-025AM","DECAY_DATE":null,"MEAN_MOTION_DDOT":"0.0000000000000","MEAN_MOTION":"15.06388761","TIME_SYSTEM":"UTC","REF_FRAME":"TEME","GP_ID":"188022832","BSTAR":"-0.00002576900000","COUNTRY_CODE":"US","MEAN_ANOMALY":"277.6992","NORAD_CAT_ID":"45566","CLASSIFICATION_TYPE":"U","INCLINATION":"53.0555","CENTER_NAME":"EARTH","EPHEMERIS_TYPE":"0"},{"TLE_LINE1":"1 45567U 20025AN  21296.72679403 -.00000002  00000-0  18789-4 0  9994","RCS_SIZE":"LARGE","ECCENTRICITY":"0.00014840","SEMIMAJOR_AXIS":"6925.373","RA_OF_ASC_NODE":"60.1556","PERIOD":"95.593","EPOCH":"2021-10-23T17:26:35.004192","TLE_LINE2":"2 45567  53.0547  60.1556 0001484  92.3510 267.7649 15.06391885 84529","OBJECT_TYPE":"PAYLOAD","MEAN_MOTION_DOT":"-0.00000002","LAUNCH_DATE":"2020-04-22","PERIAPSIS":"546.211","MEAN_ELEMENT_THEORY":"SGP4","REV_AT_EPOCH":"8452","TIME_SYSTEM":"UTC","MEAN_MOTION_DDOT":"0.0000000000000","MEAN_MOTION":"15.06391885","OBJECT_ID":"2020-025AN","DECAY_DATE":null,"ARG_OF_PERICENTER":"92.3510","SITE":"AFETR","FILE":"3181152","ELEMENT_SET_NO":"999","APOAPSIS":"548.266","OBJECT_NAME":"STARLINK-1361","EPHEMERIS_TYPE":"0","CENTER_NAME":"EARTH","CLASSIFICATION_TYPE":"U","INCLINATION":"53.0547","NORAD_CAT_ID":"45567","MEAN_ANOMALY":"267.7649","COUNTRY_CODE":"US","BSTAR":"0.00001878900000","REF_FRAME":"TEME","GP_ID":"188023582"}];
